[{"OBJECT_NAME":"STARLINK-31397","OBJECT_ID":"2024-074G","EPOCH":"2026-03-09T04:22:26.124384","MEAN_MOTION":15.27512537,"ECCENTRICITY":0.00012485,"INCLINATION":43.0017,"RA_OF_ASC_NODE":346.6585,"ARG_OF_PERICENTER":41.9916,"MEAN_ANOMALY":318.1032,"EPHEMERIS_TYPE":0,"CLASSIFICATION_TYPE":"U","NORAD_CAT_ID":59540,"ELEMENT_SET_NO":999,"REV_AT_EPOCH":10593,"BSTAR":0.00041826768,"MEAN_MOTION_DOT":0.00011242,"MEAN_MOTION_DDOT":0},{"OBJECT_NAME":"239ALFEROV (RS61S)","OBJECT_ID":"2025-155F","EPOCH":"2026-03-09T21:46:33.382848","MEAN_MOTION":15.29933217,"ECCENTRICITY":0.00084878,"INCLINATION":97.4469,"RA_OF_ASC_NODE":37.6373,"ARG_OF_PERICENTER":151.5904,"MEAN_ANOMALY":208.58,"EPHEMERIS_TYPE":0,"CLASSIFICATION_TYPE":"U","NORAD_CAT_ID":64881,"ELEMENT_SET_NO":999,"REV_AT_EPOCH":6561,"BSTAR":0.00067233359,"MEAN_MOTION_DOT":0.00019457,"MEAN_MOTION_DDOT":0}]
